{
  "norad_id": 53150,
  "name": "STARLINK-4038",
  "history": [
    {
      "epoch": "2026-03-29T02:45:48.547872Z",
      "apogee_km": 207.91178944847798,
      "perigee_km": 205.08829708432586,
      "latitude_deg": 1.850857363841655e-06,
      "longitude_deg": 151.29934537623333,
      "height_km": 208.17274272927511,
      "semi_major_axis_km": 6584.637043266402,
      "eccentricity": 0.0002144,
      "inclination_deg": 53.1923,
      "raan_deg": 19.2775,
      "arg_perigee_deg": 238.8215,
      "mean_anomaly_deg": 121.2617,
      "mean_motion_rev_day": 16.24819044
    }
  ]
}